{
"type": "FeatureCollection",
"name": "crew_data",
"crs": { "type": "name", "properties": { "name": "urn:ogc:def:crs:OGC:1.3:CRS84" } },
"features": [
{ "type": "Feature", "properties": { "fid": 1, "org_name": "USFS", "crew_name": "Gila Trail Crew", "org_type": "Government", "crew_type": "Professional", "work_type": "Trail", "status": "Complete", "start_date": "2026-04-13", "end_date": "2026-04-16", "crew_size": 3, "work_description": "Retread and log out South Fork Mineral Creek Trail.", "crew_logo": "usfs_logo.png", "contact_name": "Kyle Wisman", "contact_phone": "kyle.wisman@usda.gov", "contact_email": null }, "geometry": { "type": "Point", "coordinates": [ -108.653509316105925, 33.385898764150227 ] } },
{ "type": "Feature", "properties": { "fid": 2, "org_name": "Heart of the Gila", "crew_name": "Heart of the Gila Trail Crew", "org_type": "Non-Profit", "crew_type": "Professional", "work_type": "Trail", "status": "Planned", "start_date": "2026-05-06", "end_date": "2026-05-13", "crew_size": null, "work_description": "Gila River Trail work.", "crew_logo": "heart_of_the_gila_logo.png", "contact_name": "Patrice", "contact_phone": null, "contact_email": null }, "geometry": { "type": "Point", "coordinates": [ -108.20795883746267, 33.178483787393425 ] } },
{ "type": "Feature", "properties": { "fid": 3, "org_name": "USFS", "crew_name": "Gila Trail Crew", "org_type": "Government", "crew_type": "Professional", "work_type": "Trail", "status": "Planned", "start_date": "2026-05-06", "end_date": "2026-05-13", "crew_size": 4, "work_description": "Logout and brushing on Black Canyon Trail above Aspen Canyon", "crew_logo": "usfs_logo.png", "contact_name": "Kyle Wisman", "contact_phone": null, "contact_email": "kyle.wisman@usda.gov" }, "geometry": { "type": "Point", "coordinates": [ -107.960347538596466, 33.163770924620692 ] } }
]
}
